{"type": "FeatureCollection", "features": [ {"type": "Feature", "properties": {"norad_id": 33779, "name": "COSMOS 2251 DEB", "group": "cosmos-2251-debris", "lat": -2.5469434945969494, "lon": 178.30502219469145, "alt_km": 672.9897033628449, "timestamp": "2025-12-08T10:52:03.340785+00:00", "meta": {"OBJECT_NAME": "COSMOS 2251 DEB", "OBJECT_ID": "1993-036U", "EPOCH": "2025-12-07T20:15:00.685152", "MEAN_MOTION": 14.70294313, "ECCENTRICITY": 0.00174114, "INCLINATION": 74.0443, "RA_OF_ASC_NODE": 180.2145, "ARG_OF_PERICENTER": 214.547, "MEAN_ANOMALY": 160.3407, "EPHEMERIS_TYPE": 0, "CLASSIFICATION_TYPE": "U", "NORAD_CAT_ID": 33779, "ELEMENT_SET_NO": 999, "REV_AT_EPOCH": 88456, "BSTAR": 0.0024352448, "MEAN_MOTION_DOT": 0.00014738, "MEAN_MOTION_DDOT": 0}, "tle": {"line1": "1 33779U 93036U   25341.84375793  .00014738  00000+0  24352-2 0  9991", "line2": "2 33779  74.0443 180.2145 0017411 214.5470 160.3407 14.70294313884567"}}, "geometry": {"type": "Point", "coordinates": [178.30502219469145, -2.5469434945969494]}}, {"type": "Feature", "properties": {"norad_id": 33782, "name": "COSMOS 2251 DEB", "group": "cosmos-2251-debris", "lat": -37.74398350908644, "lon": 118.27955536614992, "alt_km": 772.811618588863, "timestamp": "2025-12-08T10:52:03.340795+00:00", "meta": {"OBJECT_NAME": "COSMOS 2251 DEB", "OBJECT_ID": "1993-036X", "EPOCH": "2025-12-07T14:41:14.455104", "MEAN_MOTION": 14.40426134, "ECCENTRICITY": 0.00205636, "INCLINATION": 74.0341, "RA_OF_ASC_NODE": 287.0297, "ARG_OF_PERICENTER": 352.6449, "MEAN_ANOMALY": 188.5158, "EPHEMERIS_TYPE": 0, "CLASSIFICATION_TYPE": "U", "NORAD_CAT_ID": 33782, "ELEMENT_SET_NO": 999, "REV_AT_EPOCH": 88052, "BSTAR": 0.0008532954, "MEAN_MOTION_DOT": 2.692e-05, "MEAN_MOTION_DDOT": 0}, "tle": {"line1": "1 33782U 93036X   25341.61197286  .00002692  00000+0  85330-3 0  9999", "line2": "2 33782  74.0341 287.0297 0020563 352.6449 188.5158 14.40426134880526"}}, "geometry": {"type": "Point", "coordinates": [118.27955536614992, -37.74398350908644]}}, {"type": "Feature", "properties": {"norad_id": 33785, "name": "COSMOS 2251 DEB", "group": "cosmos-2251-debris", "lat": -29.135518994201536, "lon": 59.04766567031965, "alt_km": 653.5845229092747, "timestamp": "2025-12-08T10:52:03.340806+00:00", "meta": {"OBJECT_NAME": "COSMOS 2251 DEB", "OBJECT_ID": "1993-036AA", "EPOCH": "2025-12-07T15:57:28.556640", "MEAN_MOTION": 14.70305506, "ECCENTRICITY": 0.00218435, "INCLINATION": 73.8679, "RA_OF_ASC_NODE": 69.8753, "ARG_OF_PERICENTER": 10.4152, "MEAN_ANOMALY": 110.6108, "EPHEMERIS_TYPE": 0, "CLASSIFICATION_TYPE": "U", "NORAD_CAT_ID": 33785, "ELEMENT_SET_NO": 999, "REV_AT_EPOCH": 88432, "BSTAR": 0.0033057989, "MEAN_MOTION_DOT": 0.00020066, "MEAN_MOTION_DDOT": 0}, "tle": {"line1": "1 33785U 93036AA  25341.66491385  .00020066  00000+0  33058-2 0  9998", "line2": "2 33785  73.8679  69.8753 0021843  10.4152 110.6108 14.70305506884320"}}, "geometry": {"type": "Point", "coordinates": [59.04766567031965, -29.135518994201536]}}, {"type": "Feature", "properties": {"norad_id": 33789, "name": "COSMOS 2251 DEB", "group": "cosmos-2251-debris", "lat": -29.94758595755001, "lon": 85.20822451821542, "alt_km": 1016.446601961633, "timestamp": "2025-12-08T10:52:03.340817+00:00", "meta": {"OBJECT_NAME": "COSMOS 2251 DEB", "OBJECT_ID": "1993-036AE", "EPOCH": "2025-12-07T18:17:52.031328", "MEAN_MOTION": 13.88778162, "ECCENTRICITY": 0.02403687, "INCLINATION": 74.0651, "RA_OF_ASC_NODE": 95.8532, "ARG_OF_PERICENTER": 212.581, "MEAN_ANOMALY": 263.341, "EPHEMERIS_TYPE": 0, "CLASSIFICATION_TYPE": "U", "NORAD_CAT_ID": 33789, "ELEMENT_SET_NO": 999, "REV_AT_EPOCH": 85026, "BSTAR": 0.0014135889, "MEAN_MOTION_DOT": 2.125e-05, "MEAN_MOTION_DDOT": 0}, "tle": {"line1": "1 33789U 93036AE  25341.76240777  .00002125  00000+0  14136-2 0  9992", "line2": "2 33789  74.0651  95.8532 0240368 212.5810 263.3410 13.88778162850260"}}, "geometry": {"type": "Point", "coordinates": [85.20822451821542, -29.94758595755001]}}, {"type": "Feature", "properties": {"norad_id": 33791, "name": "COSMOS 2251 DEB", "group": "cosmos-2251-debris", "lat": 72.5341327644165, "lon": 109.81838778105653, "alt_km": 761.5629161201432, "timestamp": "2025-12-08T10:52:03.340828+00:00", "meta": {"OBJECT_NAME": "COSMOS 2251 DEB", "OBJECT_ID": "1993-036AG", "EPOCH": "2025-12-07T15:02:05.045856", "MEAN_MOTION": 14.43084639, "ECCENTRICITY": 0.00305839, "INCLINATION": 74.1755, "RA_OF_ASC_NODE": 46.9975, "ARG_OF_PERICENTER": 245.0885, "MEAN_ANOMALY": 226.2447, "EPHEMERIS_TYPE": 0, "CLASSIFICATION_TYPE": "U", "NORAD_CAT_ID": 33791, "ELEMENT_SET_NO": 999, "REV_AT_EPOCH": 87978, "BSTAR": 0.0012153253, "MEAN_MOTION_DOT": 4.076e-05, "MEAN_MOTION_DDOT": 0}, "tle": {"line1": "1 33791U 93036AG  25341.62644729  .00004076  00000+0  12153-2 0  9999", "line2": "2 33791  74.1755  46.9975 0030583 245.0885 226.2447 14.43084639879783"}}, "geometry": {"type": "Point", "coordinates": [109.81838778105653, 72.5341327644165]}}, {"type": "Feature", "properties": {"norad_id": 33792, "name": "COSMOS 2251 DEB", "group": "cosmos-2251-debris", "lat": -14.267754850018305, "lon": 176.40220269534564, "alt_km": 1318.9016089157312, "timestamp": "2025-12-08T10:52:03.340839+00:00", "meta": {"OBJECT_NAME": "COSMOS 2251 DEB", "OBJECT_ID": "1993-036AH", "EPOCH": "2025-12-07T18:44:16.855296", "MEAN_MOTION": 13.45812159, "ECCENTRICITY": 0.04268876, "INCLINATION": 73.9009, "RA_OF_ASC_NODE": 353.2635, "ARG_OF_PERICENTER": 58.8393, "MEAN_ANOMALY": 117.5916, "EPHEMERIS_TYPE": 0, "CLASSIFICATION_TYPE": "U", "NORAD_CAT_ID": 33792, "ELEMENT_SET_NO": 999, "REV_AT_EPOCH": 82375, "BSTAR": 0.0011149791, "MEAN_MOTION_DOT": 1.135e-05, "MEAN_MOTION_DDOT": 0}, "tle": {"line1": "1 33792U 93036AH  25341.78075064  .00001135  00000+0  11150-2 0  9996", "line2": "2 33792  73.9009 353.2635 0426887  58.8393 117.5916 13.45812159823756"}}, "geometry": {"type": "Point", "coordinates": [176.40220269534564, -14.267754850018305]}}, {"type": "Feature", "properties": {"norad_id": 33793, "name": "COSMOS 2251 DEB", "group": "cosmos-2251-debris", "lat": -22.12579398334964, "lon": -15.582821827166514, "alt_km": 819.2023065505191, "timestamp": "2025-12-08T10:52:03.340850+00:00", "meta": {"OBJECT_NAME": "COSMOS 2251 DEB", "OBJECT_ID": "1993-036AJ", "EPOCH": "2025-12-07T21:00:44.933184", "MEAN_MOTION": 14.27698729, "ECCENTRICITY": 0.0078334, "INCLINATION": 73.9804, "RA_OF_ASC_NODE": 158.7579, "ARG_OF_PERICENTER": 309.8304, "MEAN_ANOMALY": 168.0337, "EPHEMERIS_TYPE": 0, "CLASSIFICATION_TYPE": "U", "NORAD_CAT_ID": 33793, "ELEMENT_SET_NO": 999, "REV_AT_EPOCH": 87137, "BSTAR": 0.0010779297, "MEAN_MOTION_DOT": 2.721e-05, "MEAN_MOTION_DDOT": 0}, "tle": {"line1": "1 33793U 93036AJ  25341.87552006  .00002721  00000+0  10779-2 0  9991", "line2": "2 33793  73.9804 158.7579 0078334 309.8304 168.0337 14.27698729871371"}}, "geometry": {"type": "Point", "coordinates": [-15.582821827166514, -22.12579398334964]}}, {"type": "Feature", "properties": {"norad_id": 33795, "name": "COSMOS 2251 DEB", "group": "cosmos-2251-debris", "lat": 30.740997693046115, "lon": 95.33052715388915, "alt_km": 565.4536837391961, "timestamp": "2025-12-08T10:52:03.340860+00:00", "meta": {"OBJECT_NAME": "COSMOS 2251 DEB", "OBJECT_ID": "1993-036AL", "EPOCH": "2025-12-07T16:05:56.809824", "MEAN_MOTION": 15.05222319, "ECCENTRICITY": 0.00323084, "INCLINATION": 74.0332, "RA_OF_ASC_NODE": 87.1284, "ARG_OF_PERICENTER": 172.6143, "MEAN_ANOMALY": 303.9752, "EPHEMERIS_TYPE": 0, "CLASSIFICATION_TYPE": "U", "NORAD_CAT_ID": 33795, "ELEMENT_SET_NO": 999, "REV_AT_EPOCH": 89945, "BSTAR": 0.0023526043, "MEAN_MOTION_DOT": 0.00034106, "MEAN_MOTION_DDOT": 0}, "tle": {"line1": "1 33795U 93036AL  25341.67079641  .00034106  00000+0  23526-2 0  9996", "line2": "2 33795  74.0332  87.1284 0032308 172.6143 303.9752 15.05222319899452"}}, "geometry": {"type": "Point", "coordinates": [95.33052715388915, 30.740997693046115]}}, {"type": "Feature", "properties": {"norad_id": 33797, "name": "COSMOS 2251 DEB", "group": "cosmos-2251-debris", "lat": -43.759126920804874, "lon": -120.99643009695535, "alt_km": 708.9879127380482, "timestamp": "2025-12-08T10:52:03.340874+00:00", "meta": {"OBJECT_NAME": "COSMOS 2251 DEB", "OBJECT_ID": "1993-036AN", "EPOCH": "2025-12-07T16:16:59.464128", "MEAN_MOTION": 14.57818417, "ECCENTRICITY": 0.0060938, "INCLINATION": 74.0481, "RA_OF_ASC_NODE": 44.5781, "ARG_OF_PERICENTER": 133.9775, "MEAN_ANOMALY": 348.9975, "EPHEMERIS_TYPE": 0, "CLASSIFICATION_TYPE": "U", "NORAD_CAT_ID": 33797, "ELEMENT_SET_NO": 999, "REV_AT_EPOCH": 88911, "BSTAR": 0.00078851642, "MEAN_MOTION_DOT": 3.674e-05, "MEAN_MOTION_DDOT": 0}, "tle": {"line1": "1 33797U 93036AN  25341.67846602  .00003674  00000+0  78852-3 0  9996", "line2": "2 33797  74.0481  44.5781 0060938 133.9775 348.9975 14.57818417889113"}}, "geometry": {"type": "Point", "coordinates": [-120.99643009695535, -43.759126920804874]}}, {"type": "Feature", "properties": {"norad_id": 33798, "name": "COSMOS 2251 DEB", "group": "cosmos-2251-debris", "lat": -48.27447398184742, "lon": 125.15679046047768, "alt_km": 701.3157171699095, "timestamp": "2025-12-08T10:52:03.340898+00:00", "meta": {"OBJECT_NAME": "COSMOS 2251 DEB", "OBJECT_ID": "1993-036AP", "EPOCH": "2025-12-07T22:22:08.014944", "MEAN_MOTION": 14.4460469, "ECCENTRICITY": 0.00925138, "INCLINATION": 74.0277, "RA_OF_ASC_NODE": 144.8602, "ARG_OF_PERICENTER": 267.2745, "MEAN_ANOMALY": 213.9019, "EPHEMERIS_TYPE": 0, "CLASSIFICATION_TYPE": "U", "NORAD_CAT_ID": 33798, "ELEMENT_SET_NO": 999, "REV_AT_EPOCH": 88524, "BSTAR": 0.0002555819, "MEAN_MOTION_DOT": 9.02e-06, "MEAN_MOTION_DDOT": 0}, "tle": {"line1": "1 33798U 93036AP  25341.93203721  .00000902  00000+0  25558-3 0  9991", "line2": "2 33798  74.0277 144.8602 0092513 267.2745 213.9019 14.44604690885247"}}, "geometry": {"type": "Point", "coordinates": [125.15679046047768, -48.27447398184742]}}]}